NORAD_CAT_ID,OBJECT_NAME,OBJECT_TYPE,EPOCH,MEAN_MOTION,ECCENTRICITY,INCLINATION,RA_OF_ASC_NODE,ARG_OF_PERICENTER,MEAN_ANOMALY,BSTAR,MEAN_MOTION_DOT,MEAN_MOTION_DDOT,TLE_LINE0,TLE_LINE1,TLE_LINE2,SEMIMAJOR_AXIS,PERIOD,APOGEE,PERIGEE,DECAYED
52685.0,STARLINK-4029,PAYLOAD,2024-05-27 09:22:03,15.08842228,0.0001429,53.217,187.9122,104.5883,255.5268,8.7884e-05,1.111e-05,0.0,0 STARLINK-4029,1 52685U 22053AF  24148.39032385  .00001111  00000-0  87884-4 0  9993,2 52685  53.2170 187.9122 0001429 104.5883 255.5268 15.08842228112794,6917.874,95.437,540.727,538.75,0.0
52685.0,STARLINK-4029,PAYLOAD,2024-05-28 02:51:18,15.08839456,0.0001309,53.2163,184.6468,97.4274,262.6866,0.00011354,1.52e-05,0.0,0 STARLINK-4029,1 52685U 22053AF  24149.11896505  .00001520  00000-0  11354-3 0  9998,2 52685  53.2163 184.6468 0001309  97.4274 262.6866 15.08839456112538,6917.882,95.438,540.653,538.842,0.0
52685.0,STARLINK-4029,PAYLOAD,2024-05-28 09:12:51,15.08840217,0.0001289,53.2162,183.4557,101.216,258.8977,0.00010899,1.447e-05,0.0,0 STARLINK-4029,1 52685U 22053AF  24149.38392459  .00001447  00000-0  10899-3 0  9997,2 52685  53.2162 183.4557 0001289 101.2160 258.8977 15.08840217112940,6917.88,95.438,540.636,538.853,0.0
52685.0,STARLINK-4029,PAYLOAD,2024-05-29 09:03:38,15.08839551,0.0001307,53.2161,178.9956,97.7554,262.3587,4.0182e-05,3.52e-06,0.0,0 STARLINK-4029,1 52685U 22053AF  24150.37752596  .00000352  00000-0  40182-4 0  9993,2 52685  53.2161 178.9956 0001307  97.7554 262.3587 15.08839551112720,6917.882,95.438,540.651,538.843,0.0
52685.0,STARLINK-4029,PAYLOAD,2024-05-30 10:29:48,15.08841757,0.000131,53.2161,174.2384,96.6465,263.4677,6.6029e-05,7.63e-06,0.0,0 STARLINK-4029,1 52685U 22053AF  24151.43736470  .00000763  00000-0  66029-4 0  9998,2 52685  53.2161 174.2384 0001310  96.6465 263.4677 15.08841757112887,6917.875,95.437,540.646,538.834,0.0
52685.0,STARLINK-4029,PAYLOAD,2024-05-31 08:45:12,15.08838475,0.0001343,53.2164,170.0761,93.6736,266.441,5.858e-05,6.44e-06,0.0,0 STARLINK-4029,1 52685U 22053AF  24152.36472856  .00000644  00000-0  58580-4 0  9997,2 52685  53.2164 170.0761 0001343  93.6736 266.4410 15.08838475113025,6917.885,95.438,540.679,538.821,0.0
52685.0,STARLINK-4029,PAYLOAD,2024-05-31 18:17:31,15.08840465,0.0001316,53.2162,168.2904,87.5548,272.5595,7.113e-05,8.44e-06,0.0,0 STARLINK-4029,1 52685U 22053AF  24152.76216748  .00000844  00000-0  71130-4 0  9995,2 52685  53.2162 168.2904 0001316  87.5548 272.5595 15.08840465113455,6917.879,95.438,540.654,538.834,0.0
52685.0,STARLINK-4029,PAYLOAD,2024-06-01 08:35:59,15.08842057,0.0001303,53.216,165.6136,88.34,271.7741,5.9733e-05,6.63e-06,0.0,0 STARLINK-4029,1 52685U 22053AF  24153.35832647  .00000663  00000-0  59733-4 0  9997,2 52685  53.2160 165.6136 0001303  88.3400 271.7741 15.08842057113546,6917.874,95.437,540.641,538.838,0.0
52685.0,STARLINK-4029,PAYLOAD,2024-06-01 18:08:18,15.08839993,0.0001306,53.2162,163.8298,87.7564,272.3578,5.471e-05,5.83e-06,0.0,0 STARLINK-4029,1 52685U 22053AF  24153.75576823  .00000583  00000-0  54710-4 0  9993,2 52685  53.2162 163.8298 0001306  87.7564 272.3578 15.08839993113230,6917.88,95.438,540.649,538.842,0.0
52685.0,STARLINK-4029,PAYLOAD,2024-06-02 10:02:09,15.08839061,0.0001325,53.2161,160.8564,87.3743,272.74,5.9709e-05,6.62e-06,0.0,0 STARLINK-4029,1 52685U 22053AF  24154.41816979  .00000662  00000-0  59709-4 0  9997,2 52685  53.2161 160.8564 0001325  87.3743 272.7400 15.08839061113704,6917.883,95.438,540.665,538.832,0.0
52685.0,STARLINK-4029,PAYLOAD,2024-06-03 05:06:46,15.08852421,0.0001325,53.2163,157.2884,86.531,273.5833,0.00015224,2.137e-05,0.0,0 STARLINK-4029,1 52685U 22053AF  24155.21303732  .00002137  00000-0  15224-3 0  9996,2 52685  53.2163 157.2884 0001325  86.5310 273.5833 15.08852421113458,6917.842,95.437,540.624,538.791,0.0
52685.0,STARLINK-4029,PAYLOAD,2024-06-03 09:52:55,15.08860019,0.0001328,53.2159,156.3937,99.2361,260.8782,0.00021496,3.137e-05,0.0,0 STARLINK-4029,1 52685U 22053AF  24155.41174935  .00003137  00000-0  21496-3 0  9998,2 52685  53.2159 156.3937 0001328  99.2361 260.8782 15.08860019113489,6917.819,95.436,540.603,538.766,0.0
52685.0,STARLINK-4029,PAYLOAD,2024-06-04 03:22:11,15.08840653,0.000121,53.2157,153.1231,93.4166,266.6964,7.3641e-05,8.84e-06,0.0,0 STARLINK-4029,1 52685U 22053AF  24156.14040520  .00000884  00000-0  73641-4 0  9997,2 52685  53.2157 153.1231 0001210  93.4166 266.6964 15.08840653113598,6917.878,95.438,540.58,538.906,0.0
52685.0,STARLINK-4029,PAYLOAD,2024-06-04 06:32:57,15.0884,0.0001144,53.216,152.528,95.5767,264.5355,7.2816e-05,8.71e-06,0.0,0 STARLINK-4029,1 52685U 22053AF  24156.27288580  .00000871  00000-0  72816-4 0  9990,2 52685  53.2160 152.5280 0001144  95.5767 264.5355 15.08840000113985,6917.88,95.438,540.537,538.954,0.0
52685.0,STARLINK-4029,PAYLOAD,2024-06-05 04:48:21,15.08841703,0.0001377,53.2163,148.3636,100.0318,260.083,-6.0693e-05,-1.254e-05,0.0,0 STARLINK-4029,1 52685U 22053AF  24157.20024627 -.00001254  00000-0 -60693-4 0  9992,2 52685  53.2163 148.3636 0001377 100.0318 260.0830 15.08841703113753,6917.875,95.437,540.693,538.788,0.0
52685.0,STARLINK-4029,PAYLOAD,2024-06-05 06:23:44,15.08843784,0.0001303,53.216,148.0688,94.3299,265.7842,-5.9895e-05,-1.241e-05,0.0,0 STARLINK-4029,1 52685U 22053AF  24157.26648490 -.00001241  00000-0 -59895-4 0  9996,2 52685  53.2160 148.0688 0001303  94.3299 265.7842 15.08843784114135,6917.869,95.437,540.635,538.832,0.0
52685.0,STARLINK-4029,PAYLOAD,2024-06-05 15:56:03,15.0884329,0.0001314,53.2158,146.2846,91.9832,268.131,-9.9624e-05,-1.873e-05,0.0,0 STARLINK-4029,1 52685U 22053AF  24157.66392570 -.00001873  00000-0 -99624-4 0  9990,2 52685  53.2158 146.2846 0001314  91.9832 268.1310 15.08843290114191,6917.87,95.437,540.644,538.826,0.0
52685.0,STARLINK-4029,PAYLOAD,2024-06-06 04:39:09,15.08825348,0.0001537,53.2165,143.907,93.566,266.5508,3.3497e-05,2.45e-06,0.0,0 STARLINK-4029,1 52685U 22053AF  24158.19385796  .00000245  00000-0  33497-4 0  9997,2 52685  53.2165 143.9070 0001537  93.5660 266.5508 15.08825348113909,6917.925,95.438,540.853,538.727,0.0
52685.0,STARLINK-4029,PAYLOAD,2024-06-07 09:16:02,15.08874813,0.0001641,53.2161,138.5549,92.456,267.662,0.00040798,6.217e-05,0.0,0 STARLINK-4029,1 52685U 22053AF  24159.38613989  .00006217  00000-0  40798-3 0  9993,2 52685  53.2161 138.5549 0001641  92.4560 267.6620 15.08874813114087,6917.774,95.435,540.774,538.504,0.0
52685.0,STARLINK-4029,PAYLOAD,2024-06-07 15:37:37,15.08846953,0.0002645,53.2155,137.3625,77.3402,282.7885,0.00015182,2.129e-05,0.0,0 STARLINK-4029,1 52685U 22053AF  24159.65112412  .00002129  00000-0  15182-3 0  9995,2 52685  53.2155 137.3625 0002645  77.3402 282.7885 15.08846953114124,6917.859,95.437,541.554,537.894,0.0
52685.0,STARLINK-4029,PAYLOAD,2024-06-07 21:59:10,15.08836774,0.0002646,53.2171,136.1776,82.4581,277.6712,0.00013434,1.85e-05,0.0,0 STARLINK-4029,1 52685U 22053AF  24159.91609285  .00001850  00000-0  13434-3 0  9991,2 52685  53.2171 136.1776 0002646  82.4581 277.6712 15.08836774114539,6917.89,95.438,541.586,537.925,0.0
52685.0,STARLINK-4029,PAYLOAD,2024-06-08 04:20:44,15.08820267,0.0001687,53.2168,134.9852,83.8409,276.2775,-5.6234e-05,-1.182e-05,0.0,0 STARLINK-4029,1 52685U 22053AF  24160.18106918 -.00001182  00000-0 -56234-4 0  9993,2 52685  53.2168 134.9852 0001687  83.8409 276.2775 15.08820267114202,6917.941,95.439,540.973,538.639,0.0
52685.0,STARLINK-4029,PAYLOAD,2024-06-08 07:31:30,15.08827731,0.0001655,53.217,134.3901,84.0205,276.0975,-8.2605e-05,-1.602e-05,0.0,0 STARLINK-4029,1 52685U 22053AF  24160.31354544 -.00001602  00000-0 -82605-4 0  9996,2 52685  53.2170 134.3901 0001655  84.0205 276.0975 15.08827731114591,6917.918,95.438,540.928,538.638,0.0
52685.0,STARLINK-4029,PAYLOAD,2024-06-08 15:28:25,15.08835206,0.0001653,53.2171,132.9048,87.4386,272.6795,-1.2795e-05,-4.92e-06,0.0,0 STARLINK-4029,1 52685U 22053AF  24160.64474089 -.00000492  00000-0 -12795-4 0  9998,2 52685  53.2171 132.9048 0001653  87.4386 272.6795 15.08835206114276,6917.895,95.438,540.904,538.617,0.0
52685.0,STARLINK-4029,PAYLOAD,2024-06-08 21:49:57,15.08845672,0.0001837,53.2163,131.7143,80.6592,279.4608,-0.00031723,-5.334e-05,0.0,0 STARLINK-4029,1 52685U 22053AF  24160.90969337 -.00005334  00000-0 -31723-3 0  9993,2 52685  53.2163 131.7143 0001837  80.6592 279.4608 15.08845672114689,6917.863,95.437,540.999,538.457,0.0
52685.0,STARLINK-4029,PAYLOAD,2024-06-09 04:11:29,15.08844453,0.0001678,53.2147,130.5251,81.8281,278.2902,4.4265e-06,-2.18e-06,0.0,0 STARLINK-4029,1 52685U 22053AF  24161.17465240 -.00000218  00000-0  44265-5 0  9999,2 52685  53.2147 130.5251 0001678  81.8281 278.2902 15.08844453114353,6917.867,95.437,540.893,538.571,0.0
52685.0,STARLINK-4029,PAYLOAD,2024-06-09 07:22:16,15.08849186,0.0001717,53.2152,129.9303,81.9922,278.1264,0.00020988,3.055e-05,0.0,0 STARLINK-4029,1 52685U 22053AF  24161.30713214  .00003055  00000-0  20988-3 0  9996,2 52685  53.2152 129.9303 0001717  81.9922 278.1264 15.08849186114747,6917.852,95.437,540.905,538.53,0.0
52685.0,STARLINK-4029,PAYLOAD,2024-06-09 15:19:12,15.08844277,0.0001687,53.2146,128.4437,79.0497,281.0685,0.0006629,0.00010279,0.0,0 STARLINK-4029,1 52685U 22053AF  24161.63833936  .00010279  00000-0  66290-3 0  9998,2 52685  53.2146 128.4437 0001687  79.0497 281.0685 15.08844277114794,6917.867,95.437,540.899,538.565,0.0
52685.0,STARLINK-4029,PAYLOAD,2024-06-10 04:02:17,15.08846628,0.0001769,53.2161,126.0631,90.7435,269.376,0.00039863,6.063e-05,0.0,0 STARLINK-4029,1 52685U 22053AF  24162.16825795  .00006063  00000-0  39863-3 0  9993,2 52685  53.2161 126.0631 0001769  90.7435 269.3760 15.08846628114508,6917.86,95.437,540.949,538.501,0.0
52685.0,STARLINK-4029,PAYLOAD,2024-06-10 15:09:59,15.08845016,0.0001804,53.2167,123.9786,96.6825,263.4372,0.00022721,3.33e-05,0.0,0 STARLINK-4029,1 52685U 22053AF  24162.63193721  .00003330  00000-0  22721-3 0  9991,2 52685  53.2167 123.9786 0001804  96.6825 263.4372 15.08845016114941,6917.865,95.437,540.978,538.482,0.0
